[
    {
        "OBJECT_NAME": "ARIANE 40+ R/B",
        "OBJECT_ID": "1995-021B",
        "EPOCH": "2026-04-16T15:14:25.245888",
        "MEAN_MOTION": 14.39798929,
        "ECCENTRICITY": 0.0007292,
        "INCLINATION": 98.4439,
        "RA_OF_ASC_NODE": 177.5916,
        "ARG_OF_PERICENTER": 38.0254,
        "MEAN_ANOMALY": 90.2149,
        "EPHEMERIS_TYPE": 0,
        "CLASSIFICATION_TYPE": "U",
        "NORAD_CAT_ID": 23561,
        "ELEMENT_SET_NO": 999,
        "REV_AT_EPOCH": 62470,
        "BSTAR": 6.4861e-05,
        "MEAN_MOTION_DOT": 1.6e-06,
        "MEAN_MOTION_DDOT": 0
    },
    {
        "OBJECT_NAME": "SL-16 R/B",
        "OBJECT_ID": "1995-058B",
        "EPOCH": "2026-04-16T17:20:40.130880",
        "MEAN_MOTION": 14.15503731,
        "ECCENTRICITY": 0.0010654,
        "INCLINATION": 71.0195,
        "RA_OF_ASC_NODE": 100.4049,
        "ARG_OF_PERICENTER": 55.7813,
        "MEAN_ANOMALY": 304.4318,
        "EPHEMERIS_TYPE": 0,
        "CLASSIFICATION_TYPE": "U",
        "NORAD_CAT_ID": 23705,
        "ELEMENT_SET_NO": 999,
        "REV_AT_EPOCH": 57323,
        "BSTAR": 0.00014047,
        "MEAN_MOTION_DOT": 2.27e-06,
        "MEAN_MOTION_DDOT": 0
    },
    {
        "OBJECT_NAME": "SL-16 R/B",
        "OBJECT_ID": "1996-051B",
        "EPOCH": "2026-04-16T16:49:34.748832",
        "MEAN_MOTION": 14.1242546,
        "ECCENTRICITY": 0.0012636,
        "INCLINATION": 70.7569,
        "RA_OF_ASC_NODE": 94.7826,
        "ARG_OF_PERICENTER": 83.242,
        "MEAN_ANOMALY": 277.0137,
        "EPHEMERIS_TYPE": 0,
        "CLASSIFICATION_TYPE": "U",
        "NORAD_CAT_ID": 24298,
        "ELEMENT_SET_NO": 999,
        "REV_AT_EPOCH": 52701,
        "BSTAR": 4.5702e-05,
        "MEAN_MOTION_DOT": 3.5e-07,
        "MEAN_MOTION_DDOT": 0
    },
    {
        "OBJECT_NAME": "ORBVIEW 2 (SEASTAR)",
        "OBJECT_ID": "1997-037A",
        "EPOCH": "2026-04-16T11:23:46.780800",
        "MEAN_MOTION": 14.35520777,
        "ECCENTRICITY": 0.0001419,
        "INCLINATION": 98.8629,
        "RA_OF_ASC_NODE": 271.8006,
        "ARG_OF_PERICENTER": 334.8141,
        "MEAN_ANOMALY": 25.2974,
        "EPHEMERIS_TYPE": 0,
        "CLASSIFICATION_TYPE": "U",
        "NORAD_CAT_ID": 24883,
        "ELEMENT_SET_NO": 999,
        "REV_AT_EPOCH": 51389,
        "BSTAR": 6.7666e-05,
        "MEAN_MOTION_DOT": 1.48e-06,
        "MEAN_MOTION_DDOT": 0
    },
    {
        "OBJECT_NAME": "SL-16 R/B",
        "OBJECT_ID": "1998-043G",
        "EPOCH": "2026-04-16T14:52:20.991360",
        "MEAN_MOTION": 14.26058317,
        "ECCENTRICITY": 0.0008748,
        "INCLINATION": 98.8316,
        "RA_OF_ASC_NODE": 60.2672,
        "ARG_OF_PERICENTER": 264.2912,
        "MEAN_ANOMALY": 95.727,
        "EPHEMERIS_TYPE": 0,
        "CLASSIFICATION_TYPE": "U",
        "NORAD_CAT_ID": 25400,
        "ELEMENT_SET_NO": 999,
        "REV_AT_EPOCH": 44439,
        "BSTAR": 2.3019e-05,
        "MEAN_MOTION_DOT": 1e-07,
        "MEAN_MOTION_DDOT": 0
    },
    {
        "OBJECT_NAME": "SL-16 R/B",
        "OBJECT_ID": "1998-045B",
        "EPOCH": "2026-04-16T17:09:29.094048",
        "MEAN_MOTION": 14.16199089,
        "ECCENTRICITY": 0.0008979,
        "INCLINATION": 71.0092,
        "RA_OF_ASC_NODE": 101.6072,
        "ARG_OF_PERICENTER": 314.5216,
        "MEAN_ANOMALY": 45.5173,
        "EPHEMERIS_TYPE": 0,
        "CLASSIFICATION_TYPE": "U",
        "NORAD_CAT_ID": 25407,
        "ELEMENT_SET_NO": 999,
        "REV_AT_EPOCH": 43248,
        "BSTAR": 1.7202e-05,
        "MEAN_MOTION_DOT": -1.4e-07,
        "MEAN_MOTION_DDOT": 0
    },
    {
        "OBJECT_NAME": "ISS (ZARYA)",
        "OBJECT_ID": "1998-067A",
        "EPOCH": "2026-04-16T20:16:06.008736",
        "MEAN_MOTION": 15.48789484,
        "ECCENTRICITY": 0.0006573,
        "INCLINATION": 51.6329,
        "RA_OF_ASC_NODE": 243.6903,
        "ARG_OF_PERICENTER": 315.5681,
        "MEAN_ANOMALY": 44.478,
        "EPHEMERIS_TYPE": 0,
        "CLASSIFICATION_TYPE": "U",
        "NORAD_CAT_ID": 25544,
        "ELEMENT_SET_NO": 999,
        "REV_AT_EPOCH": 56224,
        "BSTAR": 8.5733e-05,
        "MEAN_MOTION_DOT": 4.242e-05,
        "MEAN_MOTION_DDOT": 0
    },
    {
        "OBJECT_NAME": "CZ-4B R/B",
        "OBJECT_ID": "1999-025C",
        "EPOCH": "2026-04-16T20:29:54.882816",
        "MEAN_MOTION": 14.18272722,
        "ECCENTRICITY": 0.0036217,
        "INCLINATION": 98.6553,
        "RA_OF_ASC_NODE": 150.2178,
        "ARG_OF_PERICENTER": 234.0356,
        "MEAN_ANOMALY": 299.7349,
        "EPHEMERIS_TYPE": 0,
        "CLASSIFICATION_TYPE": "U",
        "NORAD_CAT_ID": 25732,
        "ELEMENT_SET_NO": 999,
        "REV_AT_EPOCH": 39357,
        "BSTAR": 2.9962e-05,
        "MEAN_MOTION_DOT": 1.9e-07,
        "MEAN_MOTION_DDOT": 0
    },
    {
        "OBJECT_NAME": "OKEAN-O",
        "OBJECT_ID": "1999-039A",
        "EPOCH": "2026-04-16T10:27:41.023872",
        "MEAN_MOTION": 14.80393131,
        "ECCENTRICITY": 0.0001254,
        "INCLINATION": 97.937,
        "RA_OF_ASC_NODE": 165.929,
        "ARG_OF_PERICENTER": 115.4497,
        "MEAN_ANOMALY": 244.6845,
        "EPHEMERIS_TYPE": 0,
        "CLASSIFICATION_TYPE": "U",
        "NORAD_CAT_ID": 25860,
        "ELEMENT_SET_NO": 999,
        "REV_AT_EPOCH": 43997,
        "BSTAR": 5.0757e-05,
        "MEAN_MOTION_DOT": 3.35e-06,
        "MEAN_MOTION_DDOT": 0
    },
    {
        "OBJECT_NAME": "SL-16 R/B",
        "OBJECT_ID": "1999-039B",
        "EPOCH": "2026-04-16T13:59:25.507968",
        "MEAN_MOTION": 14.81781901,
        "ECCENTRICITY": 0.0015887,
        "INCLINATION": 97.9893,
        "RA_OF_ASC_NODE": 165.6078,
        "ARG_OF_PERICENTER": 131.2279,
        "MEAN_ANOMALY": 229.0306,
        "EPHEMERIS_TYPE": 0,
        "CLASSIFICATION_TYPE": "U",
        "NORAD_CAT_ID": 25861,
        "ELEMENT_SET_NO": 999,
        "REV_AT_EPOCH": 44247,
        "BSTAR": 4.292e-05,
        "MEAN_MOTION_DOT": 2.85e-06,
        "MEAN_MOTION_DDOT": 0
    },
    {
        "OBJECT_NAME": "DELTA 2 R/B",
        "OBJECT_ID": "1999-041E",
        "EPOCH": "2026-04-16T19:25:27.229152",
        "MEAN_MOTION": 14.11918394,
        "ECCENTRICITY": 0.0502535,
        "INCLINATION": 51.7597,
        "RA_OF_ASC_NODE": 148.9961,
        "ARG_OF_PERICENTER": 100.838,
        "MEAN_ANOMALY": 264.9506,
        "EPHEMERIS_TYPE": 0,
        "CLASSIFICATION_TYPE": "U",
        "NORAD_CAT_ID": 25876,
        "ELEMENT_SET_NO": 999,
        "REV_AT_EPOCH": 36841,
        "BSTAR": 7.5082e-05,
        "MEAN_MOTION_DOT": 2.15e-06,
        "MEAN_MOTION_DDOT": 0
    },
    {
        "OBJECT_NAME": "HELIOS 1B",
        "OBJECT_ID": "1999-064A",
        "EPOCH": "2026-04-16T10:39:36.499680",
        "MEAN_MOTION": 14.87838892,
        "ECCENTRICITY": 7.64e-05,
        "INCLINATION": 98.1658,
        "RA_OF_ASC_NODE": 9.7915,
        "ARG_OF_PERICENTER": 39.4823,
        "MEAN_ANOMALY": 320.6448,
        "EPHEMERIS_TYPE": 0,
        "CLASSIFICATION_TYPE": "U",
        "NORAD_CAT_ID": 25977,
        "ELEMENT_SET_NO": 999,
        "REV_AT_EPOCH": 69087,
        "BSTAR": 9.5021e-05,
        "MEAN_MOTION_DOT": 8.1e-06,
        "MEAN_MOTION_DDOT": 0
    },
    {
        "OBJECT_NAME": "TERRA",
        "OBJECT_ID": "1999-068A",
        "EPOCH": "2026-04-16T21:11:38.770368",
        "MEAN_MOTION": 14.61053831,
        "ECCENTRICITY": 0.0003545,
        "INCLINATION": 97.9517,
        "RA_OF_ASC_NODE": 158.8435,
        "ARG_OF_PERICENTER": 74.5652,
        "MEAN_ANOMALY": 99.0633,
        "EPHEMERIS_TYPE": 0,
        "CLASSIFICATION_TYPE": "U",
        "NORAD_CAT_ID": 25994,
        "ELEMENT_SET_NO": 999,
        "REV_AT_EPOCH": 40065,
        "BSTAR": 5.4131e-05,
        "MEAN_MOTION_DOT": 2.21e-06,
        "MEAN_MOTION_DDOT": 0
    }
]